[{"OBJECT_NAME":"BEIDOU-2 G5","OBJECT_ID":"2012-008A","EPOCH":"2026-03-03T18:24:00.760608","MEAN_MOTION":1.00276118,"ECCENTRICITY":0.001412,"INCLINATION":3.3108,"RA_OF_ASC_NODE":70.3148,"ARG_OF_PERICENTER":250.1552,"MEAN_ANOMALY":175.8358,"EPHEMERIS_TYPE":0,"CLASSIFICATION_TYPE":"U","NORAD_CAT_ID":38091,"ELEMENT_SET_NO":999,"REV_AT_EPOCH":5131,"BSTAR":0,"MEAN_MOTION_DOT":4.4e-7,"MEAN_MOTION_DDOT":0},{"OBJECT_NAME":"INTELSAT 22 (IS-22)","OBJECT_ID":"2012-011A","EPOCH":"2026-03-03T18:25:16.452192","MEAN_MOTION":1.00273632,"ECCENTRICITY":0.0001576,"INCLINATION":0.0224,"RA_OF_ASC_NODE":225.513,"ARG_OF_PERICENTER":138.8705,"MEAN_ANOMALY":145.5646,"EPHEMERIS_TYPE":0,"CLASSIFICATION_TYPE":"U","NORAD_CAT_ID":38098,"ELEMENT_SET_NO":999,"REV_AT_EPOCH":613,"BSTAR":0,"MEAN_MOTION_DOT":-7.3e-7,"MEAN_MOTION_DDOT":0},{"OBJECT_NAME":"COSMOS 2479","OBJECT_ID":"2012-012A","EPOCH":"2026-03-03T15:51:13.056192","MEAN_MOTION":1.00339291,"ECCENTRICITY":0.0007033,"INCLINATION":8.6077,"RA_OF_ASC_NODE":57.3868,"ARG_OF_PERICENTER":242.4528,"MEAN_ANOMALY":113.408,"EPHEMERIS_TYPE":0,"CLASSIFICATION_TYPE":"U","NORAD_CAT_ID":38101,"ELEMENT_SET_NO":999,"REV_AT_EPOCH":5102,"BSTAR":0,"MEAN_MOTION_DOT":8.4e-7,"MEAN_MOTION_DDOT":0},{"OBJECT_NAME":"SL-12 R/B(2)","OBJECT_ID":"2012-012D","EPOCH":"2026-03-03T16:42:15.665760","MEAN_MOTION":1.00323351,"ECCENTRICITY":0.0012681,"INCLINATION":8.5958,"RA_OF_ASC_NODE":57.5963,"ARG_OF_PERICENTER":296.7409,"MEAN_ANOMALY":250.8961,"EPHEMERIS_TYPE":0,"CLASSIFICATION_TYPE":"U","NORAD_CAT_ID":38104,"ELEMENT_SET_NO":999,"REV_AT_EPOCH":5100,"BSTAR":0,"MEAN_MOTION_DOT":1.03e-6,"MEAN_MOTION_DDOT":0},{"OBJECT_NAME":"APSTAR-7","OBJECT_ID":"2012-013A","EPOCH":"2026-03-03T19:34:29.159328","MEAN_MOTION":1.0027155,"ECCENTRICITY":0.0003388,"INCLINATION":0.0119,"RA_OF_ASC_NODE":197.108,"ARG_OF_PERICENTER":159.9874,"MEAN_ANOMALY":174.5973,"EPHEMERIS_TYPE":0,"CLASSIFICATION_TYPE":"U","NORAD_CAT_ID":38107,"ELEMENT_SET_NO":999,"REV_AT_EPOCH":5075,"BSTAR":0,"MEAN_MOTION_DOT":-1.15e-6,"MEAN_MOTION_DDOT":0},{"OBJECT_NAME":"YAHSAT 1B","OBJECT_ID":"2012-016A","EPOCH":"2026-03-03T17:43:32.291616","MEAN_MOTION":1.0027236,"ECCENTRICITY":0.0003276,"INCLINATION":0.0814,"RA_OF_ASC_NODE":92.264,"ARG_OF_PERICENTER":254.2464,"MEAN_ANOMALY":128.4512,"EPHEMERIS_TYPE":0,"CLASSIFICATION_TYPE":"U","NORAD_CAT_ID":38245,"ELEMENT_SET_NO":999,"REV_AT_EPOCH":4455,"BSTAR":0,"MEAN_MOTION_DOT":1.13e-6,"MEAN_MOTION_DDOT":0},{"OBJECT_NAME":"AEHF-2 (USA 235)","OBJECT_ID":"2012-019A","EPOCH":"2026-03-03T19:07:54.206688","MEAN_MOTION":1.00273449,"ECCENTRICITY":0.0003158,"INCLINATION":6.4057,"RA_OF_ASC_NODE":58.253,"ARG_OF_PERICENTER":275.4875,"MEAN_ANOMALY":98.2773,"EPHEMERIS_TYPE":0,"CLASSIFICATION_TYPE":"U","NORAD_CAT_ID":38254,"ELEMENT_SET_NO":999,"REV_AT_EPOCH":593,"BSTAR":0,"MEAN_MOTION_DOT":-1.45e-6,"MEAN_MOTION_DDOT":0},{"OBJECT_NAME":"JCSAT-13","OBJECT_ID":"2012-023A","EPOCH":"2026-03-03T17:24:38.666592","MEAN_MOTION":1.00272836,"ECCENTRICITY":0.0002135,"INCLINATION":0.0387,"RA_OF_ASC_NODE":271.4689,"ARG_OF_PERICENTER":113.2018,"MEAN_ANOMALY":161.9694,"EPHEMERIS_TYPE":0,"CLASSIFICATION_TYPE":"U","NORAD_CAT_ID":38331,"ELEMENT_SET_NO":999,"REV_AT_EPOCH":5048,"BSTAR":0,"MEAN_MOTION_DOT":-3.7e-6,"MEAN_MOTION_DDOT":0},{"OBJECT_NAME":"VINASAT-2","OBJECT_ID":"2012-023B","EPOCH":"2026-03-03T17:24:38.666592","MEAN_MOTION":1.00269591,"ECCENTRICITY":0.0002874,"INCLINATION":0.052,"RA_OF_ASC_NODE":299.6716,"ARG_OF_PERICENTER":62.0106,"MEAN_ANOMALY":192.7853,"EPHEMERIS_TYPE":0,"CLASSIFICATION_TYPE":"U","NORAD_CAT_ID":38332,"ELEMENT_SET_NO":999,"REV_AT_EPOCH":4560,"BSTAR":0,"MEAN_MOTION_DOT":-3.43e-6,"MEAN_MOTION_DDOT":0},{"OBJECT_NAME":"NIMIQ 6","OBJECT_ID":"2012-026A","EPOCH":"2026-03-03T13:38:33.270432","MEAN_MOTION":1.00270999,"ECCENTRICITY":0.0002629,"INCLINATION":0.0573,"RA_OF_ASC_NODE":279.6248,"ARG_OF_PERICENTER":57.76,"MEAN_ANOMALY":297.471,"EPHEMERIS_TYPE":0,"CLASSIFICATION_TYPE":"U","NORAD_CAT_ID":38342,"ELEMENT_SET_NO":999,"REV_AT_EPOCH":4935,"BSTAR":0,"MEAN_MOTION_DOT":-1.88e-6,"MEAN_MOTION_DDOT":0},{"OBJECT_NAME":"ZHONGXING-2A","OBJECT_ID":"2012-028A","EPOCH":"2026-03-03T19:40:43.561632","MEAN_MOTION":1.00272938,"ECCENTRICITY":0.0001271,"INCLINATION":1.1819,"RA_OF_ASC_NODE":85.3659,"ARG_OF_PERICENTER":228.7599,"MEAN_ANOMALY":240.8796,"EPHEMERIS_TYPE":0,"CLASSIFICATION_TYPE":"U","NORAD_CAT_ID":38352,"ELEMENT_SET_NO":999,"REV_AT_EPOCH":5024,"BSTAR":0,"MEAN_MOTION_DOT":-3.06e-6,"MEAN_MOTION_DDOT":0},{"OBJECT_NAME":"INTELSAT 19 (IS-19)","OBJECT_ID":"2012-030A","EPOCH":"2026-03-03T18:17:14.062848","MEAN_MOTION":1.00269987,"ECCENTRICITY":0.0003155,"INCLINATION":0.0252,"RA_OF_ASC_NODE":150.879,"ARG_OF_PERICENTER":208.9049,"MEAN_ANOMALY":242.0651,"EPHEMERIS_TYPE":0,"CLASSIFICATION_TYPE":"U","NORAD_CAT_ID":38356,"ELEMENT_SET_NO":999,"REV_AT_EPOCH":4939,"BSTAR":0,"MEAN_MOTION_DOT":0,"MEAN_MOTION_DDOT":0},{"OBJECT_NAME":"ECHOSTAR 17","OBJECT_ID":"2012-035A","EPOCH":"2026-03-03T15:16:38.868672","MEAN_MOTION":1.00272046,"ECCENTRICITY":0.000193,"INCLINATION":0.0183,"RA_OF_ASC_NODE":131.2812,"ARG_OF_PERICENTER":211.8446,"MEAN_ANOMALY":300.3183,"EPHEMERIS_TYPE":0,"CLASSIFICATION_TYPE":"U","NORAD_CAT_ID":38551,"ELEMENT_SET_NO":999,"REV_AT_EPOCH":5000,"BSTAR":0,"MEAN_MOTION_DOT":-8.9e-7,"MEAN_MOTION_DDOT":0},{"OBJECT_NAME":"METEOSAT-10 (MSG-3)","OBJECT_ID":"2012-035B","EPOCH":"2026-03-03T19:12:38.752128","MEAN_MOTION":1.00277243,"ECCENTRICITY":0.0002501,"INCLINATION":4.4223,"RA_OF_ASC_NODE":61.466,"ARG_OF_PERICENTER":294.0063,"MEAN_ANOMALY":94.5172,"EPHEMERIS_TYPE":0,"CLASSIFICATION_TYPE":"U","NORAD_CAT_ID":38552,"ELEMENT_SET_NO":999,"REV_AT_EPOCH":4980,"BSTAR":0,"MEAN_MOTION_DOT":-1.5e-7,"MEAN_MOTION_DDOT":0},{"OBJECT_NAME":"SES-5","OBJECT_ID":"2012-036A","EPOCH":"2026-03-03T19:14:01.122432","MEAN_MOTION":1.0027173,"ECCENTRICITY":0.0002033,"INCLINATION":0.0612,"RA_OF_ASC_NODE":309.6626,"ARG_OF_PERICENTER":28.2758,"MEAN_ANOMALY":117.0916,"EPHEMERIS_TYPE":0,"CLASSIFICATION_TYPE":"U","NORAD_CAT_ID":38652,"ELEMENT_SET_NO":999,"REV_AT_EPOCH":4340,"BSTAR":0,"MEAN_MOTION_DOT":2.0e-7,"MEAN_MOTION_DDOT":0},{"OBJECT_NAME":"INTELSAT 20 (IS-20)","OBJECT_ID":"2012-043A","EPOCH":"2026-03-03T15:40:19.888608","MEAN_MOTION":1.00270147,"ECCENTRICITY":0.0002282,"INCLINATION":0.0216,"RA_OF_ASC_NODE":132.165,"ARG_OF_PERICENTER":30.5691,"MEAN_ANOMALY":302.2468,"EPHEMERIS_TYPE":0,"CLASSIFICATION_TYPE":"U","NORAD_CAT_ID":38740,"ELEMENT_SET_NO":999,"REV_AT_EPOCH":4969,"BSTAR":0,"MEAN_MOTION_DOT":-3.8e-7,"MEAN_MOTION_DDOT":0},{"OBJECT_NAME":"HYLAS 2","OBJECT_ID":"2012-043B","EPOCH":"2026-03-03T18:51:55.738656","MEAN_MOTION":1.00270724,"ECCENTRICITY":0.0002645,"INCLINATION":2.1553,"RA_OF_ASC_NODE":82.3936,"ARG_OF_PERICENTER":280.2192,"MEAN_ANOMALY":9.3382,"EPHEMERIS_TYPE":0,"CLASSIFICATION_TYPE":"U","NORAD_CAT_ID":38741,"ELEMENT_SET_NO":999,"REV_AT_EPOCH":4971,"BSTAR":0,"MEAN_MOTION_DOT":-2.7e-6,"MEAN_MOTION_DDOT":0},{"OBJECT_NAME":"INTELSAT 21 (IS-21)","OBJECT_ID":"2012-045A","EPOCH":"2026-03-03T18:56:02.844384","MEAN_MOTION":1.00270898,"ECCENTRICITY":0.0001775,"INCLINATION":0.0372,"RA_OF_ASC_NODE":266.6294,"ARG_OF_PERICENTER":80.9141,"MEAN_ANOMALY":40.0089,"EPHEMERIS_TYPE":0,"CLASSIFICATION_TYPE":"U","NORAD_CAT_ID":38749,"ELEMENT_SET_NO":999,"REV_AT_EPOCH":4946,"BSTAR":0,"MEAN_MOTION_DOT":-2.99e-6,"MEAN_MOTION_DDOT":0},{"OBJECT_NAME":"ASTRA 2F","OBJECT_ID":"2012-051A","EPOCH":"2026-03-03T19:20:37.987008","MEAN_MOTION":1.00273947,"ECCENTRICITY":0.0002577,"INCLINATION":0.0742,"RA_OF_ASC_NODE":258.5205,"ARG_OF_PERICENTER":16.5698,"MEAN_ANOMALY":204.8076,"EPHEMERIS_TYPE":0,"CLASSIFICATION_TYPE":"U","NORAD_CAT_ID":38778,"ELEMENT_SET_NO":999,"REV_AT_EPOCH":4008,"BSTAR":0,"MEAN_MOTION_DOT":1.36e-6,"MEAN_MOTION_DDOT":0},{"OBJECT_NAME":"GSAT-10","OBJECT_ID":"2012-051B","EPOCH":"2026-03-03T10:56:38.679936","MEAN_MOTION":1.00273302,"ECCENTRICITY":0.0004157,"INCLINATION":0.0759,"RA_OF_ASC_NODE":263.9438,"ARG_OF_PERICENTER":175.5434,"MEAN_ANOMALY":328.8469,"EPHEMERIS_TYPE":0,"CLASSIFICATION_TYPE":"U","NORAD_CAT_ID":38779,"ELEMENT_SET_NO":999,"REV_AT_EPOCH":4903,"BSTAR":0,"MEAN_MOTION_DOT":-1.79e-6,"MEAN_MOTION_DDOT":0},{"OBJECT_NAME":"INTELSAT 23 (IS-23)","OBJECT_ID":"2012-057A","EPOCH":"2026-03-03T12:06:41.479200","MEAN_MOTION":1.00274122,"ECCENTRICITY":0.0001014,"INCLINATION":0.0462,"RA_OF_ASC_NODE":260.5275,"ARG_OF_PERICENTER":86.4678,"MEAN_ANOMALY":302.9453,"EPHEMERIS_TYPE":0,"CLASSIFICATION_TYPE":"U","NORAD_CAT_ID":38867,"ELEMENT_SET_NO":999,"REV_AT_EPOCH":4889,"BSTAR":0,"MEAN_MOTION_DOT":-2.99e-6,"MEAN_MOTION_DDOT":0},{"OBJECT_NAME":"BEIDOU-2 G6","OBJECT_ID":"2012-059A","EPOCH":"2026-03-03T16:11:11.143392","MEAN_MOTION":1.00269255,"ECCENTRICITY":0.0010448,"INCLINATION":4.1541,"RA_OF_ASC_NODE":74.6539,"ARG_OF_PERICENTER":302.4191,"MEAN_ANOMALY":111.1357,"EPHEMERIS_TYPE":0,"CLASSIFICATION_TYPE":"U","NORAD_CAT_ID":38953,"ELEMENT_SET_NO":999,"REV_AT_EPOCH":4885,"BSTAR":0,"MEAN_MOTION_DOT":-1.86e-6,"MEAN_MOTION_DDOT":0},{"OBJECT_NAME":"LUCH-5B","OBJECT_ID":"2012-061A","EPOCH":"2026-03-03T21:39:13.674240","MEAN_MOTION":1.00271596,"ECCENTRICITY":0.0004392,"INCLINATION":10.2575,"RA_OF_ASC_NODE":50.9099,"ARG_OF_PERICENTER":223.3648,"MEAN_ANOMALY":195.8772,"EPHEMERIS_TYPE":0,"CLASSIFICATION_TYPE":"U","NORAD_CAT_ID":38977,"ELEMENT_SET_NO":999,"REV_AT_EPOCH":4855,"BSTAR":0,"MEAN_MOTION_DOT":-1.46e-6,"MEAN_MOTION_DDOT":0},{"OBJECT_NAME":"YAMAL 300K","OBJECT_ID":"2012-061B","EPOCH":"2026-03-03T20:04:46.545312","MEAN_MOTION":1.00271999,"ECCENTRICITY":7.05e-5,"INCLINATION":0.0088,"RA_OF_ASC_NODE":190.0655,"ARG_OF_PERICENTER":66.9323,"MEAN_ANOMALY":28.7236,"EPHEMERIS_TYPE":0,"CLASSIFICATION_TYPE":"U","NORAD_CAT_ID":38978,"ELEMENT_SET_NO":999,"REV_AT_EPOCH":4857,"BSTAR":0,"MEAN_MOTION_DOT":5.7e-7,"MEAN_MOTION_DDOT":0}]
